[{"OBJECT_NAME":"ONEWEB-0564","OBJECT_ID":"2023-029F","EPOCH":"2025-10-26T19:17:23.133408","MEAN_MOTION":13.207704,"ECCENTRICITY":0.00015501,"INCLINATION":87.9191,"RA_OF_ASC_NODE":321.0187,"ARG_OF_PERICENTER":85.3012,"MEAN_ANOMALY":274.8298,"EPHEMERIS_TYPE":0,"CLASSIFICATION_TYPE":"U","NORAD_CAT_ID":55801,"ELEMENT_SET_NO":999,"REV_AT_EPOCH":13034,"BSTAR":-4.1364512e-5,"MEAN_MOTION_DOT":-4.0e-8,"MEAN_MOTION_DDOT":0},{"OBJECT_NAME":"ONEWEB-0638","OBJECT_ID":"2023-029G","EPOCH":"2025-10-26T20:43:43.623840","MEAN_MOTION":13.14504519,"ECCENTRICITY":0.00013446,"INCLINATION":87.9009,"RA_OF_ASC_NODE":336.2531,"ARG_OF_PERICENTER":101.1307,"MEAN_ANOMALY":258.9974,"EPHEMERIS_TYPE":0,"CLASSIFICATION_TYPE":"U","NORAD_CAT_ID":55802,"ELEMENT_SET_NO":999,"REV_AT_EPOCH":12874,"BSTAR":0.00072834154,"MEAN_MOTION_DOT":2.83e-6,"MEAN_MOTION_DDOT":0},{"OBJECT_NAME":"ONEWEB-0639","OBJECT_ID":"2023-029H","EPOCH":"2025-10-26T21:29:12.541056","MEAN_MOTION":13.1972446,"ECCENTRICITY":0.00026963,"INCLINATION":87.9234,"RA_OF_ASC_NODE":351.4003,"ARG_OF_PERICENTER":118.8429,"MEAN_ANOMALY":241.2975,"EPHEMERIS_TYPE":0,"CLASSIFICATION_TYPE":"U","NORAD_CAT_ID":55803,"ELEMENT_SET_NO":999,"REV_AT_EPOCH":12813,"BSTAR":-8.8241753e-5,"MEAN_MOTION_DOT":-2.2e-7,"MEAN_MOTION_DDOT":0},{"OBJECT_NAME":"ONEWEB-0640","OBJECT_ID":"2023-029J","EPOCH":"2025-10-26T19:07:49.646496","MEAN_MOTION":13.14504006,"ECCENTRICITY":0.00014796,"INCLINATION":87.9016,"RA_OF_ASC_NODE":336.2515,"ARG_OF_PERICENTER":120.5536,"MEAN_ANOMALY":239.574,"EPHEMERIS_TYPE":0,"CLASSIFICATION_TYPE":"U","NORAD_CAT_ID":55804,"ELEMENT_SET_NO":999,"REV_AT_EPOCH":12875,"BSTAR":0.00040701732,"MEAN_MOTION_DOT":1.64e-6,"MEAN_MOTION_DDOT":0},{"OBJECT_NAME":"ONEWEB-0641","OBJECT_ID":"2023-029K","EPOCH":"2025-10-26T21:22:22.904832","MEAN_MOTION":13.1972518,"ECCENTRICITY":0.00020412,"INCLINATION":87.9247,"RA_OF_ASC_NODE":351.3777,"ARG_OF_PERICENTER":102.8768,"MEAN_ANOMALY":257.2593,"EPHEMERIS_TYPE":0,"CLASSIFICATION_TYPE":"U","NORAD_CAT_ID":55805,"ELEMENT_SET_NO":999,"REV_AT_EPOCH":12814,"BSTAR":1.0924693e-5,"MEAN_MOTION_DOT":1.7e-7,"MEAN_MOTION_DDOT":0},{"OBJECT_NAME":"ONEWEB-0642","OBJECT_ID":"2023-029L","EPOCH":"2025-10-26T21:15:33.518304","MEAN_MOTION":13.19724977,"ECCENTRICITY":0.00026725,"INCLINATION":87.9235,"RA_OF_ASC_NODE":351.4065,"ARG_OF_PERICENTER":110.8278,"MEAN_ANOMALY":249.3141,"EPHEMERIS_TYPE":0,"CLASSIFICATION_TYPE":"U","NORAD_CAT_ID":55806,"ELEMENT_SET_NO":999,"REV_AT_EPOCH":12813,"BSTAR":9.5046693e-5,"MEAN_MOTION_DOT":5.1e-7,"MEAN_MOTION_DDOT":0},{"OBJECT_NAME":"ONEWEB-0643","OBJECT_ID":"2023-029M","EPOCH":"2025-10-26T20:14:02.714208","MEAN_MOTION":13.14502874,"ECCENTRICITY":0.000258,"INCLINATION":87.9019,"RA_OF_ASC_NODE":336.227,"ARG_OF_PERICENTER":101.1684,"MEAN_ANOMALY":258.9736,"EPHEMERIS_TYPE":0,"CLASSIFICATION_TYPE":"U","NORAD_CAT_ID":55807,"ELEMENT_SET_NO":999,"REV_AT_EPOCH":12873,"BSTAR":-0.00027031558,"MEAN_MOTION_DOT":-8.7e-7,"MEAN_MOTION_DDOT":0},{"OBJECT_NAME":"ONEWEB-0644","OBJECT_ID":"2023-029N","EPOCH":"2025-10-26T15:41:11.956704","MEAN_MOTION":13.19724716,"ECCENTRICITY":0.00022874,"INCLINATION":87.9235,"RA_OF_ASC_NODE":351.4614,"ARG_OF_PERICENTER":106.0793,"MEAN_ANOMALY":254.0592,"EPHEMERIS_TYPE":0,"CLASSIFICATION_TYPE":"U","NORAD_CAT_ID":55808,"ELEMENT_SET_NO":999,"REV_AT_EPOCH":12810,"BSTAR":9.5910002e-5,"MEAN_MOTION_DOT":5.1e-7,"MEAN_MOTION_DDOT":0},{"OBJECT_NAME":"ONEWEB-0645","OBJECT_ID":"2023-029P","EPOCH":"2025-10-27T00:00:02.000160","MEAN_MOTION":13.18439013,"ECCENTRICITY":0.00019148,"INCLINATION":87.9236,"RA_OF_ASC_NODE":351.3775,"ARG_OF_PERICENTER":104.8906,"MEAN_ANOMALY":110.7976,"EPHEMERIS_TYPE":0,"CLASSIFICATION_TYPE":"U","NORAD_CAT_ID":55809,"ELEMENT_SET_NO":999,"REV_AT_EPOCH":518,"BSTAR":-0.0021786098,"MEAN_MOTION_DOT":-8.43e-6,"MEAN_MOTION_DDOT":0},{"OBJECT_NAME":"ONEWEB-0646","OBJECT_ID":"2023-029Q","EPOCH":"2025-10-26T20:16:22.677024","MEAN_MOTION":13.19728087,"ECCENTRICITY":0.00021494,"INCLINATION":87.9238,"RA_OF_ASC_NODE":351.4077,"ARG_OF_PERICENTER":102.5875,"MEAN_ANOMALY":257.5498,"EPHEMERIS_TYPE":0,"CLASSIFICATION_TYPE":"U","NORAD_CAT_ID":55810,"ELEMENT_SET_NO":999,"REV_AT_EPOCH":12811,"BSTAR":0.00011262975,"MEAN_MOTION_DOT":5.8e-7,"MEAN_MOTION_DDOT":0},{"OBJECT_NAME":"ONEWEB-0648","OBJECT_ID":"2023-029R","EPOCH":"2025-10-26T19:28:21.989568","MEAN_MOTION":13.14501026,"ECCENTRICITY":0.00023584,"INCLINATION":87.9006,"RA_OF_ASC_NODE":336.197,"ARG_OF_PERICENTER":119.6858,"MEAN_ANOMALY":240.4507,"EPHEMERIS_TYPE":0,"CLASSIFICATION_TYPE":"U","NORAD_CAT_ID":55811,"ELEMENT_SET_NO":999,"REV_AT_EPOCH":12873,"BSTAR":-0.00012342878,"MEAN_MOTION_DOT":-3.3e-7,"MEAN_MOTION_DDOT":0},{"OBJECT_NAME":"ONEWEB-0649","OBJECT_ID":"2023-029S","EPOCH":"2025-10-26T20:52:48.944352","MEAN_MOTION":13.19725001,"ECCENTRICITY":0.00020865,"INCLINATION":87.9243,"RA_OF_ASC_NODE":351.3968,"ARG_OF_PERICENTER":110.2986,"MEAN_ANOMALY":249.8371,"EPHEMERIS_TYPE":0,"CLASSIFICATION_TYPE":"U","NORAD_CAT_ID":55812,"ELEMENT_SET_NO":999,"REV_AT_EPOCH":12815,"BSTAR":0.00017339489,"MEAN_MOTION_DOT":8.2e-7,"MEAN_MOTION_DDOT":0},{"OBJECT_NAME":"ONEWEB-0650","OBJECT_ID":"2023-029T","EPOCH":"2025-10-26T20:45:59.537088","MEAN_MOTION":13.19725943,"ECCENTRICITY":0.00020116,"INCLINATION":87.9238,"RA_OF_ASC_NODE":351.4066,"ARG_OF_PERICENTER":101.6623,"MEAN_ANOMALY":258.4736,"EPHEMERIS_TYPE":0,"CLASSIFICATION_TYPE":"U","NORAD_CAT_ID":55813,"ELEMENT_SET_NO":999,"REV_AT_EPOCH":12812,"BSTAR":0.00015767946,"MEAN_MOTION_DOT":7.6e-7,"MEAN_MOTION_DDOT":0},{"OBJECT_NAME":"ONEWEB-0652","OBJECT_ID":"2023-029U","EPOCH":"2025-10-26T20:50:35.538432","MEAN_MOTION":13.14502948,"ECCENTRICITY":0.0001782,"INCLINATION":87.9015,"RA_OF_ASC_NODE":336.2059,"ARG_OF_PERICENTER":90.9448,"MEAN_ANOMALY":269.1886,"EPHEMERIS_TYPE":0,"CLASSIFICATION_TYPE":"U","NORAD_CAT_ID":55814,"ELEMENT_SET_NO":999,"REV_AT_EPOCH":12871,"BSTAR":0.0004577216,"MEAN_MOTION_DOT":1.82e-6,"MEAN_MOTION_DDOT":0},{"OBJECT_NAME":"ONEWEB-0653","OBJECT_ID":"2023-029V","EPOCH":"2025-10-26T20:27:45.743328","MEAN_MOTION":13.14500602,"ECCENTRICITY":0.00016093,"INCLINATION":87.9011,"RA_OF_ASC_NODE":336.199,"ARG_OF_PERICENTER":96.8343,"MEAN_ANOMALY":263.297,"EPHEMERIS_TYPE":0,"CLASSIFICATION_TYPE":"U","NORAD_CAT_ID":55815,"ELEMENT_SET_NO":999,"REV_AT_EPOCH":12874,"BSTAR":0.00043377093,"MEAN_MOTION_DOT":1.74e-6,"MEAN_MOTION_DDOT":0},{"OBJECT_NAME":"ONEWEB-0654","OBJECT_ID":"2023-029W","EPOCH":"2025-10-26T22:10:30.493920","MEAN_MOTION":13.14503975,"ECCENTRICITY":0.00016312,"INCLINATION":87.9014,"RA_OF_ASC_NODE":336.1836,"ARG_OF_PERICENTER":86.8825,"MEAN_ANOMALY":273.2492,"EPHEMERIS_TYPE":0,"CLASSIFICATION_TYPE":"U","NORAD_CAT_ID":55816,"ELEMENT_SET_NO":999,"REV_AT_EPOCH":12877,"BSTAR":0.00025403916,"MEAN_MOTION_DOT":1.07e-6,"MEAN_MOTION_DDOT":0}]
