ONEWEB-0564             
1 55801U 23029F   25299.80373997 -.00000004  00000+0 -41365-4 0  9996
2 55801  87.9191 321.0187 0001550  85.3012 274.8298 13.20770400130343
ONEWEB-0638             
1 55802U 23029G   25299.86369935  .00000283  00000+0  72834-3 0  9991
2 55802  87.9009 336.2531 0001344 101.1307 258.9974 13.14504519128742
ONEWEB-0639             
1 55803U 23029H   25299.89528404 -.00000022  00000+0 -88242-4 0  9997
2 55803  87.9234 351.4003 0002696 118.8429 241.2975 13.19724460128130
ONEWEB-0640             
1 55804U 23029J   25299.79710239  .00000164  00000+0  40702-3 0  9999
2 55804  87.9016 336.2515 0001479 120.5536 239.5740 13.14504006128750
ONEWEB-0641             
1 55805U 23029K   25299.89054288  .00000017  00000+0  10925-4 0  9998
2 55805  87.9247 351.3777 0002041 102.8768 257.2593 13.19725180128140
ONEWEB-0642             
1 55806U 23029L   25299.88580461  .00000051  00000+0  95047-4 0  9991
2 55806  87.9235 351.4065 0002672 110.8278 249.3141 13.19724977128137
ONEWEB-0643             
1 55807U 23029M   25299.84308697 -.00000087  00000+0 -27032-3 0  9996
2 55807  87.9019 336.2270 0002580 101.1684 258.9736 13.14502874128736
ONEWEB-0644             
1 55808U 23029N   25299.65361061  .00000051  00000+0  95910-4 0  9990
2 55808  87.9235 351.4614 0002287 106.0793 254.0592 13.19724716128101
ONEWEB-0645             
1 55809U 23029P   25300.00002315 -.00000843  00000+0 -21786-2 0  9996
2 55809  87.9236 351.3775 0001914 104.8906 110.7976 13.18439013  5186
ONEWEB-0646             
1 55810U 23029Q   25299.84470691  .00000058  00000+0  11263-3 0  9999
2 55810  87.9238 351.4077 0002149 102.5875 257.5498 13.19728087128118
ONEWEB-0648             
1 55811U 23029R   25299.81136562 -.00000033  00000+0 -12343-3 0  9998
2 55811  87.9006 336.1970 0002358 119.6858 240.4507 13.14501026128733
ONEWEB-0649             
1 55812U 23029S   25299.87001093  .00000082  00000+0  17339-3 0  9997
2 55812  87.9243 351.3968 0002086 110.2986 249.8371 13.19725001128154
ONEWEB-0650             
1 55813U 23029T   25299.86527242  .00000076  00000+0  15768-3 0  9993
2 55813  87.9238 351.4066 0002011 101.6623 258.4736 13.19725943128122
ONEWEB-0652             
1 55814U 23029U   25299.86846688  .00000182  00000+0  45772-3 0  9998
2 55814  87.9015 336.2059 0001782  90.9448 269.1886 13.14502948128711
ONEWEB-0653             
1 55815U 23029V   25299.85261277  .00000174  00000+0  43377-3 0  9993
2 55815  87.9011 336.1990 0001609  96.8343 263.2970 13.14500602128745
ONEWEB-0654             
1 55816U 23029W   25299.92396405  .00000107  00000+0  25404-3 0  9991
2 55816  87.9014 336.1836 0001631  86.8825 273.2492 13.14503975128776
